45450,ONEWEB-0094,2020,109.28,148.0,+,87.91,Active,1,LEO,Kazakhstan,UK,Commercial,Communications,Soyuz,1 45450U 20020AC  24266.12575066 -.00000028  00000+0 -10417-3 0  9991,2 45450  87.9128 131.9432 0001650  70.0721 290.0588 13.17710449222945,13.17710449,0.000165,LEO
45451,ONEWEB-0087,2020,109.81,148.0,+,87.9,Active,1,LEO,Kazakhstan,UK,Commercial,Communications,Soyuz,1 45451U 20020AD  24266.37843537 -.00000061  00000+0 -20702-3 0  9995,2 45451  87.8953 147.0635 0001452  77.6166 282.5125 13.11413814219646,13.11413814,0.0001452,LEO
45452,ONEWEB-0082,2020,109.81,148.0,+,87.9,Active,1,LEO,Kazakhstan,UK,Commercial,Communications,Soyuz,1 45452U 20020AE  24266.37518398  .00000020  00000+0  20581-4 0  9999,2 45452  87.8961 147.0722 0001739  78.1108 282.0215 13.11413340219732,13.1141334,0.0001739,LEO
45453,ONEWEB-0050,2020,96.57,148.0,P,88.01,Active,1,LEO,Kazakhstan,UK,Commercial,Communications,Soyuz,1 45453U 20020AF  24266.56215200  .00007349  00000+0  73941-3 0  9995,2 45453  88.0091   3.4774 0005080  96.9612 263.2195 14.91086507246124,14.91086507,0.000508,LEO
45454,ONEWEB-0034,2020,109.8,148.0,+,87.9,Active,1,LEO,Kazakhstan,UK,Commercial,Communications,Soyuz,1 45454U 20020AG  24266.62611368 -.00000536  00000+0 -15484-2 0  9998,2 45454  87.8959 147.0420 0001658  76.4110 283.7202 13.11415965219683,13.11415965,0.0001658,LEO
45455,ONEWEB-0060,2020,109.8,148.0,+,87.9,Active,1,LEO,Kazakhstan,UK,Commercial,Communications,Soyuz,1 45455U 20020AH  24266.59235914  .00000401  00000+0  10948-2 0  9993,2 45455  87.8963 147.0670 0001735  69.7491 290.3823 13.11416130219632,13.1141613,0.0001735,LEO
45456,ONEWEB-0086,2020,109.8,148.0,+,87.9,Active,1,LEO,Kazakhstan,UK,Commercial,Communications,Soyuz,1 45456U 20020AJ  24266.42266819  .00000438  00000+0  12010-2 0  9996,2 45456  87.8960 147.0824 0001357  83.5575 276.5707 13.11416670219678,13.1141667,0.0001357,LEO
45457,ONEWEB-0088,2020,109.8,148.0,+,87.9,Active,1,LEO,Kazakhstan,UK,Commercial,Communications,Soyuz,1 45457U 20020AK  24266.62950916 -.00000433  00000+0 -12566-2 0  9990,2 45457  87.8958 147.0025 0001606  75.1298 285.0007 13.11416747219634,13.11416747,0.0001606,LEO
